[{"OBJECT_NAME":"STARLINK-30146","OBJECT_ID":"2023-105N","EPOCH":"2026-03-09T22:00:01.999584","MEAN_MOTION":15.24370985,"ECCENTRICITY":9.65e-5,"INCLINATION":42.9993,"RA_OF_ASC_NODE":258.5873,"ARG_OF_PERICENTER":307.2589,"MEAN_ANOMALY":147.706,"EPHEMERIS_TYPE":0,"CLASSIFICATION_TYPE":"U","NORAD_CAT_ID":57442,"ELEMENT_SET_NO":999,"REV_AT_EPOCH":578,"BSTAR":0.033241649,"MEAN_MOTION_DOT":0.00895133,"MEAN_MOTION_DDOT":0},{"OBJECT_NAME":"OBJECT C","OBJECT_ID":"2023-117C","EPOCH":"2026-03-09T23:21:30.417408","MEAN_MOTION":15.3618314,"ECCENTRICITY":0.00067221,"INCLINATION":97.4122,"RA_OF_ASC_NODE":148.9889,"ARG_OF_PERICENTER":221.986,"MEAN_ANOMALY":138.087,"EPHEMERIS_TYPE":0,"CLASSIFICATION_TYPE":"U","NORAD_CAT_ID":57582,"ELEMENT_SET_NO":999,"REV_AT_EPOCH":14331,"BSTAR":0.00081096279,"MEAN_MOTION_DOT":0.00028603,"MEAN_MOTION_DDOT":0}]
